{"type": "FeatureCollection", "features": [ {"type": "Feature", "properties": {"norad_id": 39620, "name": "COSMOS 2492 (754)", "group": "gnss", "lat": -62.876810346688885, "lon": -156.43528770626045, "alt_km": 19114.661649676058, "timestamp": "2025-12-14T18:52:55.745938+00:00", "meta": {"OBJECT_NAME": "COSMOS 2492 (754)", "OBJECT_ID": "2014-012A", "EPOCH": "2025-12-12T02:29:11.116896", "MEAN_MOTION": 2.1310296, "ECCENTRICITY": 0.00141989, "INCLINATION": 65.408, "RA_OF_ASC_NODE": 320.2923, "ARG_OF_PERICENTER": 311.6032, "MEAN_ANOMALY": 48.2746, "EPHEMERIS_TYPE": 0, "CLASSIFICATION_TYPE": "U", "NORAD_CAT_ID": 39620, "ELEMENT_SET_NO": 999, "REV_AT_EPOCH": 9125, "BSTAR": 0, "MEAN_MOTION_DOT": -5.5e-07, "MEAN_MOTION_DDOT": 0}, "tle": {"line1": "1 39620U 14012A   25346.10360089 -.00000055  00000+0  00000+0 0  9994", "line2": "2 39620  65.4080 320.2923 0014198 311.6032  48.2746  2.13102960 91257"}}, "geometry": {"type": "Point", "coordinates": [-156.43528770626045, -62.876810346688885]}}, {"type": "Feature", "properties": {"norad_id": 39635, "name": "IRNSS-1B", "group": "gnss", "lat": 0.6438591585561152, "lon": 62.456962233136025, "alt_km": 35731.158205972475, "timestamp": "2025-12-14T18:52:55.745950+00:00", "meta": {"OBJECT_NAME": "IRNSS-1B", "OBJECT_ID": "2014-017A", "EPOCH": "2025-12-11T18:54:44.030304", "MEAN_MOTION": 1.00285038, "ECCENTRICITY": 0.00181492, "INCLINATION": 29.2271, "RA_OF_ASC_NODE": 243.6214, "ARG_OF_PERICENTER": 227.0185, "MEAN_ANOMALY": 309.1991, "EPHEMERIS_TYPE": 0, "CLASSIFICATION_TYPE": "U", "NORAD_CAT_ID": 39635, "ELEMENT_SET_NO": 999, "REV_AT_EPOCH": 4291, "BSTAR": 0, "MEAN_MOTION_DOT": 1.07e-06, "MEAN_MOTION_DDOT": 0}, "tle": {"line1": "1 39635U 14017A   25345.78800961  .00000107  00000+0  00000+0 0  9993", "line2": "2 39635  29.2271 243.6214 0018149 227.0185 309.1991  1.00285038 42916"}}, "geometry": {"type": "Point", "coordinates": [62.456962233136025, 0.6438591585561152]}}, {"type": "Feature", "properties": {"norad_id": 39727, "name": "LUCH 5V (SDCM/PRN 141)", "group": "gnss", "lat": 2.3632439641973244, "lon": 101.56555443354958, "alt_km": 35805.806434511054, "timestamp": "2025-12-14T18:52:55.745962+00:00", "meta": {"OBJECT_NAME": "LUCH 5V (SDCM/PRN 141)", "OBJECT_ID": "2014-023A", "EPOCH": "2025-12-13T19:02:11.158944", "MEAN_MOTION": 1.00268932, "ECCENTRICITY": 0.00045269, "INCLINATION": 4.6723, "RA_OF_ASC_NODE": 71.5294, "ARG_OF_PERICENTER": 207.5966, "MEAN_ANOMALY": 183.8765, "EPHEMERIS_TYPE": 0, "CLASSIFICATION_TYPE": "U", "NORAD_CAT_ID": 39727, "ELEMENT_SET_NO": 999, "REV_AT_EPOCH": 4250, "BSTAR": 0, "MEAN_MOTION_DOT": -2.54e-06, "MEAN_MOTION_DDOT": 0}, "tle": {"line1": "1 39727U 14023A   25347.79318471 -.00000254  00000+0  00000+0 0  9999", "line2": "2 39727   4.6723  71.5294 0004526 207.5966 183.8765  1.00268932 42502"}}, "geometry": {"type": "Point", "coordinates": [101.56555443354958, 2.3632439641973244]}}, {"type": "Feature", "properties": {"norad_id": 39741, "name": "GPS BIIF-6  (PRN 06)", "group": "gnss", "lat": -28.49624403716335, "lon": 179.6938832459153, "alt_km": 20210.59746166119, "timestamp": "2025-12-14T18:52:55.745973+00:00", "meta": {"OBJECT_NAME": "GPS BIIF-6  (PRN 06)", "OBJECT_ID": "2014-026A", "EPOCH": "2025-12-13T23:45:04.300704", "MEAN_MOTION": 2.00561334, "ECCENTRICITY": 0.00392152, "INCLINATION": 56.5831, "RA_OF_ASC_NODE": 338.7277, "ARG_OF_PERICENTER": 318.7582, "MEAN_ANOMALY": 40.9585, "EPHEMERIS_TYPE": 0, "CLASSIFICATION_TYPE": "U", "NORAD_CAT_ID": 39741, "ELEMENT_SET_NO": 999, "REV_AT_EPOCH": 8482, "BSTAR": 0, "MEAN_MOTION_DOT": -8.7e-07, "MEAN_MOTION_DDOT": 0}, "tle": {"line1": "1 39741U 14026A   25347.98963311 -.00000087  00000+0  00000+0 0  9992", "line2": "2 39741  56.5831 338.7277 0039215 318.7582  40.9585  2.00561334 84822"}}, "geometry": {"type": "Point", "coordinates": [179.6938832459153, -28.49624403716335]}}, {"type": "Feature", "properties": {"norad_id": 40001, "name": "COSMOS 2500 (755)", "group": "gnss", "lat": 47.136082456281365, "lon": 110.2906909061473, "alt_km": 19125.199283081485, "timestamp": "2025-12-14T18:52:55.745984+00:00", "meta": {"OBJECT_NAME": "COSMOS 2500 (755)", "OBJECT_ID": "2014-032A", "EPOCH": "2025-12-13T05:08:36.801312", "MEAN_MOTION": 2.13105905, "ECCENTRICITY": 0.00081883, "INCLINATION": 65.3428, "RA_OF_ASC_NODE": 320.0161, "ARG_OF_PERICENTER": 218.9765, "MEAN_ANOMALY": 140.9635, "EPHEMERIS_TYPE": 0, "CLASSIFICATION_TYPE": "U", "NORAD_CAT_ID": 40001, "ELEMENT_SET_NO": 999, "REV_AT_EPOCH": 8949, "BSTAR": 0, "MEAN_MOTION_DOT": -6e-07, "MEAN_MOTION_DDOT": 0}, "tle": {"line1": "1 40001U 14032A   25347.21431483 -.00000060  00000+0  00000+0 0  9997", "line2": "2 40001  65.3428 320.0161 0008188 218.9765 140.9635  2.13105905 89495"}}, "geometry": {"type": "Point", "coordinates": [110.2906909061473, 47.136082456281365]}}, {"type": "Feature", "properties": {"norad_id": 40105, "name": "GPS BIIF-7  (PRN 09)", "group": "gnss", "lat": 21.879668302506023, "lon": -100.37090468184405, "alt_km": 20105.96783045244, "timestamp": "2025-12-14T18:52:55.745996+00:00", "meta": {"OBJECT_NAME": "GPS BIIF-7  (PRN 09)", "OBJECT_ID": "2014-045A", "EPOCH": "2025-12-12T01:59:18.865536", "MEAN_MOTION": 2.00572516, "ECCENTRICITY": 0.00326941, "INCLINATION": 55.2287, "RA_OF_ASC_NODE": 95.9251, "ARG_OF_PERICENTER": 119.8618, "MEAN_ANOMALY": 240.4523, "EPHEMERIS_TYPE": 0, "CLASSIFICATION_TYPE": "U", "NORAD_CAT_ID": 40105, "ELEMENT_SET_NO": 999, "REV_AT_EPOCH": 8232, "BSTAR": 0, "MEAN_MOTION_DOT": -9e-08, "MEAN_MOTION_DDOT": 0}, "tle": {"line1": "1 40105U 14045A   25346.08285724 -.00000009  00000+0  00000+0 0  9998", "line2": "2 40105  55.2287  95.9251 0032694 119.8618 240.4523  2.00572516 82323"}}, "geometry": {"type": "Point", "coordinates": [-100.37090468184405, 21.879668302506023]}}, {"type": "Feature", "properties": {"norad_id": 40128, "name": "GSAT0201 (GALILEO 5)", "group": "gnss", "lat": 13.927717779218984, "lon": 88.5546382891072, "alt_km": 17041.785146223385, "timestamp": "2025-12-14T18:52:55.746007+00:00", "meta": {"OBJECT_NAME": "GSAT0201 (GALILEO 5)", "OBJECT_ID": "2014-050A", "EPOCH": "2025-12-13T11:12:06.167520", "MEAN_MOTION": 1.85519648, "ECCENTRICITY": 0.16479838, "INCLINATION": 49.0758, "RA_OF_ASC_NODE": 281.0339, "ARG_OF_PERICENTER": 172.3077, "MEAN_ANOMALY": 190.6076, "EPHEMERIS_TYPE": 0, "CLASSIFICATION_TYPE": "U", "NORAD_CAT_ID": 40128, "ELEMENT_SET_NO": 999, "REV_AT_EPOCH": 7487, "BSTAR": 0, "MEAN_MOTION_DOT": -1e-06, "MEAN_MOTION_DDOT": 0}, "tle": {"line1": "1 40128U 14050A   25347.46673805 -.00000100  00000+0  00000+0 0  9995", "line2": "2 40128  49.0758 281.0339 1647983 172.3077 190.6076  1.85519648 74873"}}, "geometry": {"type": "Point", "coordinates": [88.5546382891072, 13.927717779218984]}}, {"type": "Feature", "properties": {"norad_id": 40129, "name": "GSAT0202 (GALILEO 6)", "group": "gnss", "lat": -5.206585429128577, "lon": -84.47962073413282, "alt_km": 26217.636884006984, "timestamp": "2025-12-14T18:52:55.746018+00:00", "meta": {"OBJECT_NAME": "GSAT0202 (GALILEO 6)", "OBJECT_ID": "2014-050B", "EPOCH": "2025-12-11T13:36:31.827456", "MEAN_MOTION": 1.85520366, "ECCENTRICITY": 0.16485158, "INCLINATION": 49.0938, "RA_OF_ASC_NODE": 280.195, "ARG_OF_PERICENTER": 172.988, "MEAN_ANOMALY": 189.677, "EPHEMERIS_TYPE": 0, "CLASSIFICATION_TYPE": "U", "NORAD_CAT_ID": 40129, "ELEMENT_SET_NO": 999, "REV_AT_EPOCH": 7700, "BSTAR": 0, "MEAN_MOTION_DOT": -9.2e-07, "MEAN_MOTION_DDOT": 0}, "tle": {"line1": "1 40129U 14050B   25345.56703504 -.00000092  00000+0  00000+0 0  9995", "line2": "2 40129  49.0938 280.1950 1648515 172.9880 189.6770  1.85520366 77009"}}, "geometry": {"type": "Point", "coordinates": [-84.47962073413282, -5.206585429128577]}}, {"type": "Feature", "properties": {"norad_id": 40269, "name": "IRNSS-1C", "group": "gnss", "lat": -0.26542567605695355, "lon": 89.8611037470732, "alt_km": 35708.840797725636, "timestamp": "2025-12-14T18:52:55.746030+00:00", "meta": {"OBJECT_NAME": "IRNSS-1C", "OBJECT_ID": "2014-061A", "EPOCH": "2025-12-13T20:41:31.644384", "MEAN_MOTION": 1.00275085, "ECCENTRICITY": 0.00181166, "INCLINATION": 6.0439, "RA_OF_ASC_NODE": 92.6, "ARG_OF_PERICENTER": 2.0959, "MEAN_ANOMALY": 21.3993, "EPHEMERIS_TYPE": 0, "CLASSIFICATION_TYPE": "U", "NORAD_CAT_ID": 40269, "ELEMENT_SET_NO": 999, "REV_AT_EPOCH": 4083, "BSTAR": 0, "MEAN_MOTION_DOT": -1.47e-06, "MEAN_MOTION_DDOT": 0}, "tle": {"line1": "1 40269U 14061A   25347.86217181 -.00000147  00000+0  00000+0 0  9999", "line2": "2 40269   6.0439  92.6000 0018116   2.0959  21.3993  1.00275085 40834"}}, "geometry": {"type": "Point", "coordinates": [89.8611037470732, -0.26542567605695355]}}, {"type": "Feature", "properties": {"norad_id": 40294, "name": "GPS BIIF-8  (PRN 03)", "group": "gnss", "lat": -47.29844260235533, "lon": -96.89785479041974, "alt_km": 20347.63487685274, "timestamp": "2025-12-14T18:52:55.746041+00:00", "meta": {"OBJECT_NAME": "GPS BIIF-8  (PRN 03)", "OBJECT_ID": "2014-068A", "EPOCH": "2025-12-13T10:57:14.379552", "MEAN_MOTION": 2.00564944, "ECCENTRICITY": 0.00607799, "INCLINATION": 56.8584, "RA_OF_ASC_NODE": 38.1182, "ARG_OF_PERICENTER": 69.1634, "MEAN_ANOMALY": 291.5378, "EPHEMERIS_TYPE": 0, "CLASSIFICATION_TYPE": "U", "NORAD_CAT_ID": 40294, "ELEMENT_SET_NO": 999, "REV_AT_EPOCH": 8148, "BSTAR": 0, "MEAN_MOTION_DOT": -9.5e-07, "MEAN_MOTION_DDOT": 0}, "tle": {"line1": "1 40294U 14068A   25347.45641643 -.00000095  00000+0  00000+0 0  9995", "line2": "2 40294  56.8584  38.1182 0060779  69.1634 291.5378  2.00564944 81488"}}, "geometry": {"type": "Point", "coordinates": [-96.89785479041974, -47.29844260235533]}}]}